GOES 3                  
1 10953U 78062A   16014.51260792 -.00000117  00000-0  00000+0 0  9994
2 10953  13.9831 336.8500 0003157 203.4525  13.3366  1.00279890 90756
TDRS 3                  
1 19548U 88091B   16014.47112602 -.00000303  00000-0  00000+0 0  9994
2 19548  14.7464  13.6975 0039967 304.5651 262.4841  1.00275956 87191
SKYNET 4C               
1 20776U 90079A   16014.74759854 -.00000041  00000-0  00000+0 0  9993
2 20776  13.5197  21.4828 0003382 278.1262  81.8717  1.00273079 92775
TDRS 5                  
1 21639U 91054B   16014.70845009  .00000083  00000-0  00000+0 0  9995
2 21639  13.9635  27.0934 0023923 319.5591 214.2548  1.00276073 89534
TDRS 6                  
1 22314U 93003B   16015.49375411 -.00000298  00000-0  00000+0 0  9993
2 22314  13.4501  29.9390 0008800 279.1898 297.1055  1.00268124 84218
INTELSAT 701 (IS-701)   
1 22871U 93066A   16015.18398412 -.00000223  00000-0  00000+0 0  9990
2 22871   3.2075  69.8776 0004479 219.1096 221.7981  1.00273206 81194
NATO 4B                 
1 22921U 93076A   16015.18534914  .00000126  00000-0  00000+0 0  9997
2 22921  11.8421  28.1884 0003570 264.6708 280.5130  1.00273075 80938
INTELSAT 702 (IS-702)   
1 23124U 94034A   16013.78464752  .00000148  00000-0  00000+0 0  9998
2 23124   3.5505  68.1397 0002083 200.1788 159.7389  1.00273832 93207
OPTUS B3                
1 23227U 94055A   16014.53223940 -.00000086  00000-0  00000+0 0  9993
2 23227   6.5604  54.1937 0005992 234.1720 180.8496  1.00271567 78271
ASTRA 1D                
1 23331U 94070A   16015.32440282 -.00000292  00000-0  00000+0 0  9993
2 23331   6.7433  53.3134 0003734 243.1646 247.2075  1.00272612 78002
BRASILSAT B2            
1 23536U 95016A   16015.12005269 -.00000293  00000-0  00000+0 0  9992
2 23536   6.3648  55.1146 0002626 255.4519 143.4467  1.00271857 76156
AMSC 1                  
1 23553U 95019A   16015.09459470 -.00000119  00000-0  00000+0 0  9994
2 23553   9.3795  44.7157 0004167 232.4959 127.5051  1.00272466 76005
TDRS 7                  
1 23613U 95035B   16014.98642159 -.00000204  00000-0  00000+0 0  9999
2 23613  14.6942  20.7831 0020414  12.8782 159.9066  1.00278703 74985
ECHOSTAR 1              
1 23754U 95073A   16014.37397988 -.00000245  00000-0  00000+0 0  9992
2 23754   0.0177 308.5733 0002338 348.4967 233.6706  1.00270155 73271
INMARSAT 3-F1           
1 23839U 96020A   16013.84960832  .00000005  00000-0  00000-0 0  9998
2 23839   2.9913  69.9858 0006898 226.6537 186.4365  1.00270897 72149
ASTRA 1F                
1 23842U 96021A   16014.16631780  .00000135  00000-0  00000+0 0  9999
2 23842   0.0744 302.7641 0003866 348.0990 286.3895  1.00268374 72152
MSAT M1                 
1 23846U 96022A   16015.12885181 -.00000088  00000-0  00000+0 0  9995
2 23846   6.9347  52.9276 0005636 247.5252 112.4403  1.00271937 72275
PALAPA C2               
1 23864U 96030A   16015.45275145 -.00000245  00000-0  00000+0 0  9998
2 23864   4.6206  62.3760 0000692 185.9992 174.9910  1.00274293 72027
INMARSAT 3-F2           
1 24307U 96053A   16015.26259561 -.00000130  00000-0  00000+0 0  9992
2 24307   1.5769  80.3708 0007392 210.8450 261.9689  1.00272596 70867
AMC-1 (GE-1)            
1 24315U 96054A   16015.04218534  .00000054  00000-0  00000+0 0  9997
2 24315   0.4976  87.7716 0002764 209.7366  62.4497  1.00271902 70866
AFRICASAT-2 (MEASAT-2)  
1 24653U 96063B   16015.48761787 -.00000232  00000-0  00000+0 0  9992
2 24653   6.6601  53.7575 0009583 174.4163 209.7918  1.00271010 70199
EUTELSAT 48A            
1 24665U 96067A   16014.11917689  .00000112  00000-0  00000+0 0  9998
2 24665   5.4703  58.7457 0005845 232.1077 273.3011  1.00271000 70504
INMARSAT 3-F3           
1 24674U 96070A   16015.41492619  .00000031  00000-0  00000+0 0  9997
2 24674   2.4134  74.3584 0006041 228.2825 139.1035  1.00273192 69800
AMC-2 (GE-2)            
1 24713U 97002A   16015.46334633 -.00000235  00000-0  00000+0 0  9990
2 24713   3.3640  68.7712 0005094 228.8894 262.6140  1.00270709 20161
INTELSAT 26 (IS-26)     
1 24732U 97007A   16014.94237310  .00000017  00000-0  00000+0 0  9999
2 24732   6.6285  54.0336 0003337 225.5273 235.7004  1.00272472 69113
GALAXY 25 (G-25)        
1 24812U 97026A   16013.94504505 -.00000166  00000-0  00000+0 0  9997
2 24812   0.0210  51.3980 0002938 244.0415  64.5182  1.00272357 68186
INMARSAT 3-F4           
1 24819U 97027A   16015.32528593 -.00000297  00000-0  00000+0 0  9997
2 24819   4.8503  60.6866 0004332 237.2112 239.3880  1.00274522 68198
ABS-3                   
1 24901U 97042A   16015.38083002 -.00000135  00000-0  00000+0 0  9994
2 24901   3.9286  66.4379 0007024 232.1696 296.9787  1.00271215 67362
INTELSAT 5 (IS-5)       
1 24916U 97046A   16015.45067907 -.00000147  00000-0  00000+0 0  9991
2 24916   2.5317  73.7598 0004577 226.4068 133.4036  1.00271307 67455
METEOSAT-7              
1 24932U 97049B   16013.64450144  .00000048  00000-0  00000-0 0  9990
2 24932   9.9869  42.1820 0001884 279.3257  80.6984  1.00274518 67237
AMC-3 (GE-3)            
1 24936U 97050A   16015.51730031 -.00000279  00000-0  10000-3 0  9991
2 24936   0.0304 288.5807 0002383 354.8543 310.1781  1.00270939 67284
NSS-5                   
1 24957U 97053A   16014.11922263  .00000105  00000-0  00000+0 0  9994
2 24957   2.8313  72.0194 0003817 229.6445 264.7598  1.00273708 67068
ECHOSTAR 3              
1 25004U 97059A   16015.08234369 -.00000288  00000-0  00000+0 0  9997
2 25004   1.0913  82.3781 0002127 243.7136 115.7198  1.00272141 66983
JCSAT-1B                
1 25067U 97075A   16014.78480289 -.00000211  00000-0  00000+0 0  9990
2 25067   4.6390  62.2417 0007293 217.1389 266.8208  1.00270839 66383
ASTRA 1G                
1 25071U 97076A   16014.60043782  .00000044  00000-0  00000+0 0  9993
2 25071   1.2698  79.8294 0003581 224.5149  85.1371  1.00272115 66372
BRASILSAT B3            
1 25152U 98006A   16015.13626610 -.00000178  00000-0  00000+0 0  9992
2 25152   3.0407  71.2474 0003260 248.6541 111.2078  1.00272607 65766
INMARSAT 3-F5           
1 25153U 98006B   16014.30925025 -.00000190  00000-0  00000+0 0  9997
2 25153   1.5459  74.2905 0005389 240.1897 253.7599  0.99891599 65713
NSS-806                 
1 25239U 98014A   16015.32543078 -.00000285  00000-0  00000+0 0  9993
2 25239   0.0560  25.1341 0004575 266.3202 252.3850  1.00272816 65498
CHINASAT 5A (ZX 5A)     
1 25354U 98033A   16014.91163017 -.00000277  00000-0  00000+0 0  9998
2 25354   0.1644  89.4516 0002708 296.2167 197.8058  1.00260671 69072
THOR III                
1 25358U 98035A   16014.86920606 -.00000048  00000-0  00000+0 0  9999
2 25358   4.5179  62.4295 0003184 227.1903 132.7647  1.00271033 64545
INTELSAT 805 (IS-805)   
1 25371U 98037A   16015.13171644 -.00000141  00000-0  00000+0 0  9991
2 25371   0.0192  44.9623 0003374 269.6732 127.1497  0.99530898 64408
ASTRA 2A                
1 25462U 98050A   16014.98276089  .00000144  00000-0  00000+0 0  9990
2 25462   0.1009 254.1798 0001052 278.5175 322.9617  1.00267890 63563
INTELSAT 7 (IS-7)       
1 25473U 98052A   16014.94706541 -.00000150  00000-0  00000+0 0  9999
2 25473   2.1303  76.7506 0003737 178.7662 181.0189  1.00270244 63489
AFRISTAR                
1 25515U 98063A   16015.12020146  .00000119  00000-0  00000+0 0  9993
2 25515   2.2961  70.9277 0004374 221.1579 246.1886  1.00268707 62966
INTELSAT 8 (IS-8)       
1 25522U 98065A   16015.47524565 -.00000037  00000-0  00000+0 0  9995
2 25522   0.0193  84.1433 0003041 211.5308 158.7542  1.00272159 62964
EUTELSAT 115 WEST A     
1 25558U 98070A   16015.15096651 -.00000176  00000-0  00000+0 0  9999
2 25558   2.1272  76.4662 0002659 272.2945  87.4632  1.00272171 62880
JCSAT-4A                
1 25630U 99006A   16014.67495716 -.00000160  00000-0  00000+0 0  9994
2 25630   1.2347  82.6407 0001732 214.1287 141.7297  1.00270810 61838
SKYNET 4E               
1 25639U 99009B   16014.80105953  .00000019  00000-0  00000+0 0  9994
2 25639   9.6129  32.8067 0003661 262.3633 112.8571  1.00271354 61859
ASIASAT 3S              
1 25657U 99013A   16014.90790730 -.00000203  00000-0  00000+0 0  9999
2 25657   1.4557  80.7609 0004162 197.4097 312.9640  1.00270650 61653
NIMIQ 1                 
1 25740U 99027A   16014.26592311 -.00000202  00000-0  00000+0 0  9990
2 25740   0.0267  73.4781 0005623 231.8935 176.9906  1.00269622 61038
ASTRA 1H                
1 25785U 99033A   16014.43640329 -.00000286  00000-0  00000+0 0  9990
2 25785   2.8170  72.2126 0002800 220.3622 290.1181  1.00273845 60619
TELKOM 1                
1 25880U 99042A   16014.60693811 -.00000349  00000-0  00000+0 0  9999
2 25880   0.0406 246.7513 0001572  82.2195 111.0709  1.00271468 60199
ABS-7                   
1 25894U 99046A   16015.47128727 -.00000368  00000-0  00000+0 0  9994
2 25894   0.0107  63.2031 0002505 262.1387  74.7919  1.00266690 59005
GALAXY 27 (G-27)        
1 25922U 99052A   16014.71021670 -.00000011  00000-0  00000+0 0  9993
2 25922   2.1966  75.7039 0005576 209.6575 150.1091  1.00272916 59722
ABS-6                   
1 25924U 99053A   16014.45325117  .00000000  00000-0  10000-3 0  9992
2 25924   0.0580  85.3810 0003399 273.6911  76.4595  1.00267076 59701
TELSTAR 12 (ORION 2)    
1 25949U 99059A   16015.32332147 -.00000125  00000-0  00000+0 0  9997
2 25949   0.0207 327.0593 0002542 351.0325 257.4931  1.00270937 59364
AMC-4 (GE-4)            
1 25954U 99060A   16015.51730031 -.00000279  00000-0  10000-3 0  9995
2 25954   0.0217  48.2449 0000594   4.7965 180.5761  1.00271036 59324
GALAXY 11 (G-11)        
1 26038U 99071A   16014.13257432 -.00000144  00000-0  00000+0 0  9993
2 26038   0.0331 127.4428 0005432 230.2423 140.1241  1.00484391 58934
HISPASAT 1C             
1 26071U 00007A   16015.46319440 -.00000218  00000-0  00000+0 0  9998
2 26071   0.0355  50.4295 0002312 258.8413 247.9729  1.00271440 58478
SUPERBIRD-B2            
1 26095U 00012A   16015.54836049 -.00000099  00000-0  00000+0 0  9995
2 26095   0.0043 128.3709 0001919 166.8556 178.6016  1.00271692 58277
